NORAD_CAT_ID,OBJECT_NAME,OBJECT_TYPE,EPOCH,MEAN_MOTION,ECCENTRICITY,INCLINATION,RA_OF_ASC_NODE,ARG_OF_PERICENTER,MEAN_ANOMALY,BSTAR,MEAN_MOTION_DOT,MEAN_MOTION_DDOT,TLE_LINE0,TLE_LINE1,TLE_LINE2,SEMIMAJOR_AXIS,PERIOD,APOGEE,PERIGEE,DECAYED
47762,STARLINK-2180,PAYLOAD,2021-10-22 04:13:18,15.06395622,0.0001781999999999,53.0563,207.1227,57.9602,302.156,3.0941e-05,1.79e-06,0.0,0 STARLINK-2180,1 47762U 21017AS  21295.17591363  .00000179  00000-0  30941-4 0  9999,2 47762  53.0563 207.1227 0001782  57.9602 302.1560 15.06395622 36452,6925.361999999999,95.592,548.461,545.993,0.0
47762,STARLINK-2180,PAYLOAD,2021-10-22 16:57:37,15.06394145,0.0001802,53.0563,204.7402,59.3726,300.7441,0.00013601,1.745e-05,0.0,0 STARLINK-2180,1 47762U 21017AS  21295.70668868  .00001745  00000-0  13601-3 0  9996,2 47762  53.0563 204.7402 0001802  59.3726 300.7441 15.06394145 36536,6925.3669999999975,95.593,548.479,545.984,0.0
47762,STARLINK-2180,PAYLOAD,2021-10-23 00:55:19,15.06395685,0.0001834,53.0562,203.2511,59.662,300.455,0.00013972,1.8e-05,0.0,0 STARLINK-2180,1 47762U 21017AS  21296.03842299  .00001800  00000-0  13972-3 0  9998,2 47762  53.0562 203.2511 0001834  59.6620 300.4550 15.06395685 35932,6925.361999999999,95.592,548.497,545.957,0.0
47762,STARLINK-2180,PAYLOAD,2021-10-23 04:06:24,15.06397604,0.0001842,53.0562,202.6554,59.6444,300.4727,0.00014054,1.812e-05,0.0,0 STARLINK-2180,1 47762U 21017AS  21296.17111600  .00001812  00000-0  14054-3 0  9993,2 47762  53.0562 202.6554 0001842  59.6444 300.4727 15.06397604 36609,6925.356,95.592,548.497,545.945,0.0
47762,STARLINK-2180,PAYLOAD,2021-10-23 18:26:15,15.06404678,0.0001867,53.0563,199.9749,61.08600000000001,299.0316,0.00014132,1.824e-05,0.0,0 STARLINK-2180,1 47762U 21017AS  21296.76823310  .00001824  00000-0  14132-3 0  9996,2 47762  53.0563 199.9749 0001867  61.0860 299.0316 15.06404678 36696,6925.334,95.592,548.492,545.906,0.0
47762,STARLINK-2180,PAYLOAD,2021-10-24 00:48:24,15.06405885,0.0001881,53.0563,198.7836,61.5356,298.5822,0.00014255,1.843e-05,0.0,0 STARLINK-2180,1 47762U 21017AS  21297.03361868  .00001843  00000-0  14255-3 0  9999,2 47762  53.0563 198.7836 0001881  61.5356 298.5822 15.06405885 36081,6925.331,95.592,548.498,545.893,0.0
47762,STARLINK-2180,PAYLOAD,2021-10-24 10:21:39,15.06396305,0.00019,53.0562,196.9968,61.3691,298.7488,3.4235e-05,2.28e-06,0.0,0 STARLINK-2180,1 47762U 21017AS  21297.43170811  .00000228  00000-0  34235-4 0  9996,2 47762  53.0562 196.9968 0001900  61.3691 298.7488 15.06396305 36792,6925.36,95.592,548.5409999999998,545.909,0.0
47762,STARLINK-2180,PAYLOAD,2021-10-25 02:17:02,15.06400114,0.000192,53.0562,194.0185,62.1178,298.0006,2.5266e-05,9.5e-07,0.0,0 STARLINK-2180,1 47762U 21017AS  21298.09517348  .00000095  00000-0  25266-4 0  9995,2 47762  53.0562 194.0185 0001920  62.1178 298.0006 15.06400114 36897,6925.348000000001,95.592,548.543,545.884,0.0
47762,STARLINK-2180,PAYLOAD,2021-10-25 13:25:49,15.06405273,0.0001919,53.0562,191.9336,63.3172,296.8014,4.173e-05,3.4e-06,0.0,0 STARLINK-2180,1 47762U 21017AS  21298.55959633  .00000340  00000-0  41730-4 0  9990,2 47762  53.0562 191.9336 0001919  63.3172 296.8014 15.06405273 36319,6925.331999999999,95.592,548.526,545.868,0.0
47762,STARLINK-2180,PAYLOAD,2021-10-26 10:07:49,15.06409542,0.0001932,53.0561,188.0618,64.3494,295.7694,0.00013634,1.75e-05,0.0,0 STARLINK-2180,1 47762U 21017AS  21299.42209638  .00001750  00000-0  13634-3 0  9997,2 47762  53.0561 188.0618 0001932  64.3494 295.7694 15.06409542 37092,6925.319,95.592,548.5219999999998,545.846,0.0
47762,STARLINK-2180,PAYLOAD,2021-10-26 22:52:08,15.06397541,0.0001892,53.0561,185.6788,65.6101,294.5086,3.3353000000000004e-05,2.15e-06,0.0,0 STARLINK-2180,1 47762U 21017AS  21299.95287963  .00000215  00000-0  33353-4 0  9998,2 47762  53.0561 185.6788 0001892  65.6101 294.5086 15.06397541 36521,6925.356,95.592,548.531,545.911,0.0
47762,STARLINK-2180,PAYLOAD,2021-10-27 22:45:13,15.06406736,0.0001929,53.0561,181.2119,66.8718,293.2474,7.6975e-05,8.65e-06,0.0,0 STARLINK-2180,1 47762U 21017AS  21300.94807409  .00000865  00000-0  76975-4 0  9991,2 47762  53.0561 181.2119 0001929  66.8718 293.2474 15.06406736 36679,6925.328,95.592,548.529,545.857,0.0
47762,STARLINK-2180,PAYLOAD,2021-10-28 19:27:15,15.0639454,0.0001825,53.056,177.3395,69.01100000000001,291.1074,3.4233e-05,2.28e-06,0.0,0 STARLINK-2180,1 47762U 21017AS  21301.81059324  .00000228  00000-0  34233-4 0  9997,2 47762  53.0560 177.3395 0001825  69.0110 291.1074 15.06394540 37455,6925.365,95.592,548.494,545.966,0.0
47762,STARLINK-2180,PAYLOAD,2021-10-29 01:49:24,15.06394362,0.0001949,53.0557,176.1489,66.0061,294.1132,8.751700000000001e-05,1.022e-05,0.0,0 STARLINK-2180,1 47762U 21017AS  21302.07598131  .00001022  00000-0  87517-4 0  9996,2 47762  53.0557 176.1489 0001949  66.0061 294.1132 15.06394362 36843,6925.366,95.592,548.581,545.881,0.0
47762,STARLINK-2180,PAYLOAD,2021-10-29 11:22:38,15.06401685,0.0001976,53.0556,174.3619,65.4728,294.6467,0.0001004,1.214e-05,0.0,0 STARLINK-2180,1 47762U 21017AS  21302.47406080  .00001214  00000-0  10040-3 0  9990,2 47762  53.0556 174.3619 0001976  65.4728 294.6467 15.06401685 37552,6925.343000000003,95.592,548.577,545.84,0.0
47762,STARLINK-2180,PAYLOAD,2021-10-29 17:44:48,15.06403624,0.0001965,53.0556,173.1705,66.9926,293.1271,0.0001155,1.439e-05,0.0,0 STARLINK-2180,1 47762U 21017AS  21302.73944702  .00001439  00000-0  11550-3 0  9993,2 47762  53.0556 173.1705 0001965  66.9926 293.1271 15.06403624 37595,6925.337,95.592,548.563,545.842,0.0
47762,STARLINK-2180,PAYLOAD,2021-10-29 19:20:20,15.06404486,0.000197,53.0556,172.8726,66.9535,293.1662,0.00012937,1.646e-05,0.0,0 STARLINK-2180,1 47762U 21017AS  21302.80579347  .00001646  00000-0  12937-3 0  9990,2 47762  53.0556 172.8726 0001970  66.9535 293.1662 15.06404486 36956,6925.335,95.592,548.564,545.836,0.0
47762,STARLINK-2180,PAYLOAD,2021-10-30 11:15:44,15.06406001,0.0001978,53.0549,169.8945,66.8244,293.2954,0.00029985,4.188e-05,0.0,0 STARLINK-2180,1 47762U 21017AS  21303.46926171  .00004188  00000-0  29985-3 0  9999,2 47762  53.0549 169.8945 0001978  66.8244 293.2954 15.06406001 37705,6925.33,95.592,548.565,545.825,0.0
47762,STARLINK-2180,PAYLOAD,2021-10-31 09:33:17,15.06402111,0.0001918,53.0549,165.7248,68.416,291.7033,8.838200000000001e-05,1.035e-05,0.0,0 STARLINK-2180,1 47762U 21017AS  21304.39811593  .00001035  00000-0  88382-4 0  9998,2 47762  53.0549 165.7248 0001918  68.4160 291.7033 15.06402111 37197,6925.342,95.592,548.535,545.879,0.0
47762,STARLINK-2180,PAYLOAD,2021-10-31 17:30:58,15.06402181,0.000196,53.0547,164.2355,70.7596,289.3605,7.3319e-05,8.11e-06,0.0,0 STARLINK-2180,1 47762U 21017AS  21304.72984931  .00000811  00000-0  73319-4 0  9997,2 47762  53.0547 164.2355 0001960  70.7596 289.3605 15.06402181 37896,6925.342,95.592,548.564,545.85,0.0
47762,STARLINK-2180,PAYLOAD,2021-11-01 09:26:22,15.06407929,0.0001945,53.0548,161.2575,68.5498,291.5698,0.00019313,2.597e-05,0.0,0 STARLINK-2180,1 47762U 21017AS  21305.39331393  .00002597  00000-0  19313-3 0  9995,2 47762  53.0548 161.2575 0001945  68.5498 291.5698 15.06407929 37990,6925.324000000001,95.592,548.536,545.842,0.0
47762,STARLINK-2180,PAYLOAD,2021-11-01 17:24:04,15.06395251,0.00019,53.0546,159.7678,71.9232,288.1964,-3.7497e-05,-8.400000000000001e-06,0.0,0 STARLINK-2180,1 47762U 21017AS  21305.72505318 -.00000840  00000-0 -37497-4 0  9997,2 47762  53.0546 159.7678 0001900  71.9232 288.1964 15.06395251 37395,6925.363,95.592,548.544,545.9119999999998,0.0
47762,STARLINK-2180,PAYLOAD,2021-11-01 20:35:09,15.06392723,0.0001941,53.0545,159.1722,70.5524,289.5674,-7.2884e-05,-1.367e-05,0.0,0 STARLINK-2180,1 47762U 21017AS  21305.85774825 -.00001367  00000-0 -72884-4 0  9996,2 47762  53.0545 159.1722 0001941  70.5524 289.5674 15.06392723 38061,6925.371,95.593,548.58,545.8919999999998,0.0
47762,STARLINK-2180,PAYLOAD,2021-11-02 12:30:33,15.06394974,0.0001935,53.0545,156.1937,69.4148,290.7049,8.4441e-05,9.76e-06,0.0,0 STARLINK-2180,1 47762U 21017AS  21306.52122039  .00000976  00000-0  84441-4 0  9990,2 47762  53.0545 156.1937 0001935  69.4148 290.7049 15.06394974 38169,6925.364000000001,95.592,548.569,545.889,0.0
47762,STARLINK-2180,PAYLOAD,2021-11-02 17:17:10,15.06398149,0.0001932,53.0553,155.3,69.7437,290.3759,8.651600000000001e-05,1.007e-05,0.0,0 STARLINK-2180,1 47762U 21017AS  21306.72025968  .00001007  00000-0  86516-4 0  9996,2 47762  53.0553 155.3000 0001932  69.7437 290.3759 15.06398149 38196,6925.354,95.592,548.557,545.881,0.0
47762,STARLINK-2180,PAYLOAD,2021-11-03 09:12:33,15.06403851,0.0001918,53.0554,152.3214,71.2956,288.8241,8.6639e-05,1.009e-05,0.0,0 STARLINK-2180,1 47762U 21017AS  21307.38372532  .00001009  00000-0  86639-4 0  9999,2 47762  53.0554 152.3214 0001918  71.2956 288.8241 15.06403851 37643,6925.337,95.592,548.53,545.873,0.0
47762,STARLINK-2180,PAYLOAD,2021-11-03 12:23:38,15.06398956,0.000193,53.0554,151.7259,70.1382,289.9815,0.00017824,2.374e-05,0.0,0 STARLINK-2180,1 47762U 21017AS  21307.51642003  .00002374  00000-0  17824-3 0  9992,2 47762  53.0554 151.7259 0001930  70.1382 289.9815 15.06398956 38313,6925.352,95.592,548.553,545.88,0.0
47762,STARLINK-2180,PAYLOAD,2021-11-03 17:10:15,15.06400595,0.0001933,53.0555,150.8325,70.355,289.7647,0.00018939,2.54e-05,0.0,0 STARLINK-2180,1 47762U 21017AS  21307.71546002  .00002540  00000-0  18939-3 0  9999,2 47762  53.0555 150.8325 0001933  70.3550 289.7647 15.06400595 38347,6925.347,95.592,548.55,545.873,0.0
47762,STARLINK-2180,PAYLOAD,2021-11-04 13:52:17,15.06396504,0.0001785,53.0555,146.9601,75.5583,284.5604,0.00023621,3.238e-05,0.0,0 STARLINK-2180,1 47762U 21017AS  21308.57797469  .00003238  00000-0  23621-3 0  9998,2 47762  53.0555 146.9601 0001785  75.5583 284.5604 15.06396504 38472,6925.359,95.592,548.46,545.988,0.0
